{
    "links": {
        "self": "http://www.neowsapp.com/rest/v1/neo/3651167?api_key=iIulBulltgU6a56xZRHN4H3l9WmuAYTsLGpBGhQ2"
    },
    "id": "3651167",
    "neo_reference_id": "3651167",
    "name": "(2013 TR135)",
    "designation": "2013 TR135",
    "nasa_jpl_url": "http://ssd.jpl.nasa.gov/sbdb.cgi?sstr=3651167",
    "absolute_magnitude_h": 23.2,
    "estimated_diameter": {
        "kilometers": {
            "estimated_diameter_min": 0.0608912622,
            "estimated_diameter_max": 0.1361570015
        },
        "meters": {
            "estimated_diameter_min": 60.8912622106,
            "estimated_diameter_max": 136.1570015386
        },
        "miles": {
            "estimated_diameter_min": 0.0378360645,
            "estimated_diameter_max": 0.0846040122
        },
        "feet": {
            "estimated_diameter_min": 199.7744887109,
            "estimated_diameter_max": 446.7093369279
        }
    },
    "is_potentially_hazardous_asteroid": false,
    "close_approach_data": [
        {
            "close_approach_date": "2013-09-30",
            "close_approach_date_full": "2013-Sep-30 13:21",
            "epoch_date_close_approach": 1380547260000,
            "relative_velocity": {
                "kilometers_per_second": "26.58935181",
                "kilometers_per_hour": "95721.6665160126",
                "miles_per_hour": "59477.7210637968"
            },
            "miss_distance": {
                "astronomical": "0.0310111371",
                "lunar": "12.0633323319",
                "kilometers": "4639200.056437977",
                "miles": "2882665.2441070026"
            },
            "orbiting_body": "Earth"
        }
    ],
    "orbital_data": {
        "orbit_id": "4",
        "orbit_determination_date": "2017-04-06 08:44:09",
        "first_observation_date": "2013-10-13",
        "last_observation_date": "2013-10-15",
        "data_arc_in_days": 2,
        "observations_used": 18,
        "orbit_uncertainty": "9",
        "minimum_orbit_intersection": ".0257767",
        "jupiter_tisserand_invariant": "3.107",
        "epoch_osculation": "2456579.5",
        "eccentricity": ".8094550929290155",
        "semi_major_axis": "2.224180357569339",
        "inclination": "1.790343915374332",
        "ascending_node_longitude": "243.6302851838696",
        "orbital_period": "1211.583718122103",
        "perihelion_distance": ".4238062395421587",
        "perihelion_argument": "17.73367811675993",
        "aphelion_distance": "4.024554475596518",
        "perihelion_time": "2456521.541748266725",
        "mean_anomaly": "17.22123722190548",
        "mean_motion": ".29713175789287",
        "equinox": "J2000",
        "orbit_class": {
            "orbit_class_type": "APO",
            "orbit_class_description": "Near-Earth asteroid orbits which cross the Earth’s orbit similar to that of 1862 Apollo",
            "orbit_class_range": "a (semi-major axis) > 1.0 AU; q (perihelion) < 1.017 AU"
        }
    },
    "is_sentry_object": false
}